start=new Date('2023-02-12T00:00:00.000Z').valueOf();
sats=[{"MEAN_MOTION_DDOT":"0.0000000000000","TIME_SYSTEM":"UTC","LAUNCH_DATE":"2023-01-31","MEAN_MOTION_DOT":"0.00087686","COUNTRY_CODE":"US","OBJECT_ID":"2023-014AV","TLE_LINE2":"2 55434  70.0011  58.5543 0003126 267.6359  92.4479 15.69955405  2884","APOAPSIS":"361.133","ARG_OF_PERICENTER":"267.6359","RA_OF_ASC_NODE":"58.5543","PERIAPSIS":"356.921","SITE":"AFWTR","GP_ID":"225186825","DECAY_DATE":null,"PERIOD":"91.722","OBJECT_NAME":"STARLINK-5621","MEAN_ELEMENT_THEORY":"SGP4","MEAN_MOTION":"15.69955405","EPOCH":"2023-02-11T18:31:09.228576","ECCENTRICITY":"0.00031260","SEMIMAJOR_AXIS":"6737.162","TLE_LINE1":"1 55434U 23014AV  23042.77163459  .00087686  00000-0  72251-3 0  9999","CLASSIFICATION_TYPE":"U","NORAD_CAT_ID":"55434","ELEMENT_SET_NO":"999","CENTER_NAME":"EARTH","RCS_SIZE":"LARGE","EPHEMERIS_TYPE":"0","MEAN_ANOMALY":"92.4479","REV_AT_EPOCH":"288","REF_FRAME":"TEME","OBJECT_TYPE":"PAYLOAD","FILE":"3786577","INCLINATION":"70.0011","BSTAR":"0.00072251000000"},{"MEAN_ANOMALY":"81.9172","EPHEMERIS_TYPE":"0","RCS_SIZE":"MEDIUM","CENTER_NAME":"EARTH","ELEMENT_SET_NO":"999","CLASSIFICATION_TYPE":"U","TLE_LINE1":"1 55435U 23014AW  23042.77142758  .00058233  00000-0  48285-3 0  9995","NORAD_CAT_ID":"55435","SEMIMAJOR_AXIS":"6737.265","ECCENTRICITY":"0.00027770","BSTAR":"0.00048285000000","INCLINATION":"70.0038","FILE":"3786577","OBJECT_TYPE":"PAYLOAD","REF_FRAME":"TEME","REV_AT_EPOCH":"288","GP_ID":"225187075","DECAY_DATE":null,"SITE":"AFWTR","PERIAPSIS":"357.259","RA_OF_ASC_NODE":"58.5559","ARG_OF_PERICENTER":"278.1709","TLE_LINE2":"2 55435  70.0038  58.5559 0002777 278.1709  81.9172 15.69919419  2886","APOAPSIS":"361.000","OBJECT_ID":"2023-014AW","COUNTRY_CODE":"US","LAUNCH_DATE":"2023-01-31","MEAN_MOTION_DOT":"0.00058233","TIME_SYSTEM":"UTC","MEAN_MOTION_DDOT":"0.0000000000000","EPOCH":"2023-02-11T18:30:51.342912","MEAN_MOTION":"15.69919419","MEAN_ELEMENT_THEORY":"SGP4","OBJECT_NAME":"STARLINK-5626","PERIOD":"91.724"},{"APOAPSIS":"361.204","TLE_LINE2":"2 55436  70.0024  58.5560 0003145 273.1190  86.9646 15.69934904  2880","COUNTRY_CODE":"US","OBJECT_ID":"2023-014AX","RA_OF_ASC_NODE":"58.5560","ARG_OF_PERICENTER":"273.1190","MEAN_MOTION_DDOT":"0.0000000000000","TIME_SYSTEM":"UTC","LAUNCH_DATE":"2023-01-31","MEAN_MOTION_DOT":"0.00017346","SITE":"AFWTR","GP_ID":"225187326","DECAY_DATE":null,"PERIAPSIS":"356.966","MEAN_ELEMENT_THEORY":"SGP4","MEAN_MOTION":"15.69934904","OBJECT_NAME":"STARLINK-5640","PERIOD":"91.724","EPOCH":"2023-02-11T18:31:18.361920","NORAD_CAT_ID":"55436","TLE_LINE1":"1 55436U 23014AX  23042.77174030  .00017346  00000-0  14567-3 0  9990","CLASSIFICATION_TYPE":"U","ECCENTRICITY":"0.00031450","SEMIMAJOR_AXIS":"6737.220","EPHEMERIS_TYPE":"0","RCS_SIZE":"LARGE","MEAN_ANOMALY":"86.9646","CENTER_NAME":"EARTH","ELEMENT_SET_NO":"999","REF_FRAME":"TEME","REV_AT_EPOCH":"288","INCLINATION":"70.0024","BSTAR":"0.00014567000000","OBJECT_TYPE":"PAYLOAD","FILE":"3786577"},{"GP_ID":"225188077","DECAY_DATE":null,"SITE":"AFWTR","PERIAPSIS":"356.950","RA_OF_ASC_NODE":"58.5556","ARG_OF_PERICENTER":"279.2672","OBJECT_ID":"2023-014AY","COUNTRY_CODE":"US","APOAPSIS":"361.274","TLE_LINE2":"2 55437  70.0022  58.5556 0003209 279.2672  80.8161 15.69925693  2887","LAUNCH_DATE":"2023-01-31","MEAN_MOTION_DOT":"0.00084230","MEAN_MOTION_DDOT":"0.0000000000000","TIME_SYSTEM":"UTC","EPOCH":"2023-02-11T18:31:00.166080","MEAN_MOTION":"15.69925693","MEAN_ELEMENT_THEORY":"SGP4","PERIOD":"91.724","OBJECT_NAME":"STARLINK-5080","MEAN_ANOMALY":"80.8161","RCS_SIZE":"LARGE","EPHEMERIS_TYPE":"0","ELEMENT_SET_NO":"999","CENTER_NAME":"EARTH","NORAD_CAT_ID":"55437","TLE_LINE1":"1 55437U 23014AY  23042.77152970  .00084230  00000-0  69523-3 0  9998","CLASSIFICATION_TYPE":"U","SEMIMAJOR_AXIS":"6737.247","ECCENTRICITY":"0.00032090","BSTAR":"0.00069523000000","INCLINATION":"70.0022","FILE":"3786577","OBJECT_TYPE":"PAYLOAD","REV_AT_EPOCH":"288","REF_FRAME":"TEME"},{"CENTER_NAME":"EARTH","ELEMENT_SET_NO":"999","EPHEMERIS_TYPE":"0","RCS_SIZE":"MEDIUM","MEAN_ANOMALY":"212.7993","ECCENTRICITY":"0.00035030","SEMIMAJOR_AXIS":"6734.641","NORAD_CAT_ID":"55438","TLE_LINE1":"1 55438U 23014AZ  23042.91667824  .00079103  00000-0  62916-3 0  9996","CLASSIFICATION_TYPE":"U","OBJECT_TYPE":"PAYLOAD","FILE":"3786577","INCLINATION":"70.0028","BSTAR":"0.00062916000000","REF_FRAME":"TEME","REV_AT_EPOCH":"130","PERIAPSIS":"354.147","SITE":"AFWTR","GP_ID":"225186325","DECAY_DATE":null,"MEAN_MOTION_DDOT":"0.0000000000000","TIME_SYSTEM":"UTC","LAUNCH_DATE":"2023-01-31","MEAN_MOTION_DOT":"0.00079103","APOAPSIS":"358.865","TLE_LINE2":"2 55438  70.0028  58.1328 0003503 260.3150 212.7993 15.70836908  1303","COUNTRY_CODE":"US","OBJECT_ID":"2023-014AZ","RA_OF_ASC_NODE":"58.1328","ARG_OF_PERICENTER":"260.3150","EPOCH":"2023-02-11T22:00:00.999936","OBJECT_NAME":"STARLINK-5074","PERIOD":"91.671","MEAN_ELEMENT_THEORY":"SGP4","MEAN_MOTION":"15.70836908"},{"OBJECT_NAME":"STARLINK-5634","PERIOD":"91.721","MEAN_ELEMENT_THEORY":"SGP4","MEAN_MOTION":"15.69982843","EPOCH":"2023-02-11T18:31:28.011936","TIME_SYSTEM":"UTC","MEAN_MOTION_DDOT":"0.0000000000000","LAUNCH_DATE":"2023-01-31","MEAN_MOTION_DOT":"0.00091385","TLE_LINE2":"2 55439  70.0018  58.5563 0002540 254.9230 105.1684 15.69982843  2880","APOAPSIS":"360.659","COUNTRY_CODE":"US","OBJECT_ID":"2023-014BA","ARG_OF_PERICENTER":"254.9230","RA_OF_ASC_NODE":"58.5563","PERIAPSIS":"357.237","SITE":"AFWTR","DECAY_DATE":null,"GP_ID":"225186575","REF_FRAME":"TEME","REV_AT_EPOCH":"288","OBJECT_TYPE":"PAYLOAD","FILE":"3786577","INCLINATION":"70.0018","BSTAR":"0.00075179000000","ECCENTRICITY":"0.00025400","SEMIMAJOR_AXIS":"6737.083","CLASSIFICATION_TYPE":"U","TLE_LINE1":"1 55439U 23014BA  23042.77185199  .00091385  00000-0  75179-3 0  9992","NORAD_CAT_ID":"55439","CENTER_NAME":"EARTH","ELEMENT_SET_NO":"999","EPHEMERIS_TYPE":"0","RCS_SIZE":"MEDIUM","MEAN_ANOMALY":"105.1684"},{"ECCENTRICITY":"0.00022540","SEMIMAJOR_AXIS":"6733.031","CLASSIFICATION_TYPE":"U","TLE_LINE1":"1 55449U 23015A   23042.91667824 -.00059577  00000-0 -45321-3 0  9995","NORAD_CAT_ID":"55449","CENTER_NAME":"EARTH","ELEMENT_SET_NO":"999","EPHEMERIS_TYPE":"0","RCS_SIZE":null,"MEAN_ANOMALY":"275.3997","REF_FRAME":"TEME","REV_AT_EPOCH":"130","OBJECT_TYPE":"PAYLOAD","FILE":"3786577","INCLINATION":"42.9999","BSTAR":"-0.00045321000000","MEAN_MOTION_DDOT":"0.0000000000000","TIME_SYSTEM":"UTC","MEAN_MOTION_DOT":"-0.00059577","LAUNCH_DATE":"2023-02-02","APOAPSIS":"356.414","TLE_LINE2":"2 55449  42.9999 330.9935 0002254 230.5303 275.3997 15.71400209  1307","OBJECT_ID":"2023-015A","COUNTRY_CODE":"US","ARG_OF_PERICENTER":"230.5303","RA_OF_ASC_NODE":"330.9935","PERIAPSIS":"353.379","SITE":"AFETR","GP_ID":"225187828","DECAY_DATE":null,"OBJECT_NAME":"STARLINK-5699","PERIOD":"91.638","MEAN_ELEMENT_THEORY":"SGP4","MEAN_MOTION":"15.71400209","EPOCH":"2023-02-11T22:00:00.999936"},{"REF_FRAME":"TEME","REV_AT_EPOCH":"130","OBJECT_TYPE":"PAYLOAD","FILE":"3786577","INCLINATION":"42.9998","BSTAR":"-0.00041901000000","ECCENTRICITY":"0.00017040","SEMIMAJOR_AXIS":"6733.074","TLE_LINE1":"1 55450U 23015B   23042.91667824 -.00055106  00000-0 -41901-3 0  9991","CLASSIFICATION_TYPE":"U","NORAD_CAT_ID":"55450","CENTER_NAME":"EARTH","ELEMENT_SET_NO":"999","EPHEMERIS_TYPE":"0","RCS_SIZE":null,"MEAN_ANOMALY":"245.1043","OBJECT_NAME":"STARLINK-5686","PERIOD":"91.639","MEAN_ELEMENT_THEORY":"SGP4","MEAN_MOTION":"15.71385347","EPOCH":"2023-02-11T22:00:00.999936","MEAN_MOTION_DDOT":"0.0000000000000","TIME_SYSTEM":"UTC","LAUNCH_DATE":"2023-02-02","MEAN_MOTION_DOT":"-0.00055106","APOAPSIS":"356.086","TLE_LINE2":"2 55450  42.9998 330.9958 0001704 260.2583 245.1043 15.71385347  1304","OBJECT_ID":"2023-015B","COUNTRY_CODE":"US","RA_OF_ASC_NODE":"330.9958","ARG_OF_PERICENTER":"260.2583","PERIAPSIS":"353.791","SITE":"AFETR","DECAY_DATE":null,"GP_ID":"225187578"},{"BSTAR":"-0.00020722000000","INCLINATION":"42.9992","FILE":"3786577","OBJECT_TYPE":"PAYLOAD","REF_FRAME":"TEME","REV_AT_EPOCH":"130","MEAN_ANOMALY":"248.2899","EPHEMERIS_TYPE":"0","RCS_SIZE":null,"CENTER_NAME":"EARTH","ELEMENT_SET_NO":"999","CLASSIFICATION_TYPE":"U","TLE_LINE1":"1 55451U 23015C   23042.91667824 -.00027543  00000-0 -20722-3 0  9994","NORAD_CAT_ID":"55451","SEMIMAJOR_AXIS":"6733.137","ECCENTRICITY":"0.00013910","EPOCH":"2023-02-11T22:00:00.999936","MEAN_MOTION":"15.71363219","MEAN_ELEMENT_THEORY":"SGP4","OBJECT_NAME":"STARLINK-5656","PERIOD":"91.640","GP_ID":"225188080","DECAY_DATE":null,"SITE":"AFETR","PERIAPSIS":"354.065","RA_OF_ASC_NODE":"330.9918","ARG_OF_PERICENTER":"258.2607","TLE_LINE2":"2 55451  42.9992 330.9918 0001391 258.2607 248.2899 15.71363219  1308","APOAPSIS":"355.939","COUNTRY_CODE":"US","OBJECT_ID":"2023-015C","MEAN_MOTION_DOT":"-0.00027543","LAUNCH_DATE":"2023-02-02","MEAN_MOTION_DDOT":"0.0000000000000","TIME_SYSTEM":"UTC"},{"CENTER_NAME":"EARTH","ELEMENT_SET_NO":"999","MEAN_ANOMALY":"252.2487","EPHEMERIS_TYPE":"0","RCS_SIZE":null,"SEMIMAJOR_AXIS":"6732.962","ECCENTRICITY":"0.00019760","TLE_LINE1":"1 55452U 23015D   23042.91667824 -.00101089  00000-0 -77448-3 0  9990","NORAD_CAT_ID":"55452","CLASSIFICATION_TYPE":"U","FILE":"3786577","OBJECT_TYPE":"PAYLOAD","BSTAR":"-0.00077448000000","INCLINATION":"42.9997","REF_FRAME":"TEME","REV_AT_EPOCH":"130","PERIAPSIS":"353.497","GP_ID":"225187077","DECAY_DATE":null,"SITE":"AFETR","LAUNCH_DATE":"2023-02-02","MEAN_MOTION_DOT":"-0.00101089","MEAN_MOTION_DDOT":"0.0000000000000","TIME_SYSTEM":"UTC","RA_OF_ASC_NODE":"330.9901","ARG_OF_PERICENTER":"255.4805","APOAPSIS":"356.158","TLE_LINE2":"2 55452  42.9997 330.9901 0001976 255.4805 252.2487 15.71424449  1305","COUNTRY_CODE":"US","OBJECT_ID":"2023-015D","EPOCH":"2023-02-11T22:00:00.999936","OBJECT_NAME":"STARLINK-5683","PERIOD":"91.637","MEAN_MOTION":"15.71424449","MEAN_ELEMENT_THEORY":"SGP4"}];
